start=new Date('2023-05-18T00:00:00.000Z').valueOf();
sats=[{"CENTER_NAME":"EARTH","REV_AT_EPOCH":"7231","MEAN_ANOMALY":"278.4122","INCLINATION":"53.2170","ECCENTRICITY":"0.00008030","COUNTRY_CODE":"US","ARG_OF_PERICENTER":"81.6961","SEMIMAJOR_AXIS":"6917.888","TLE_LINE2":"2 51465  53.2170 208.5483 0000803  81.6961 278.4122 15.08837495 72312","OBJECT_ID":"2022-010K","OBJECT_NAME":"STARLINK-3401","TIME_SYSTEM":"UTC","PERIAPSIS":"539.198","OBJECT_TYPE":"PAYLOAD","ELEMENT_SET_NO":"999","APOAPSIS":"540.309","EPOCH":"2023-05-17T21:38:16.505952","EPHEMERIS_TYPE":"0","TLE_LINE1":"1 51465U 22010K   23137.90157993 -.00000177  00000-0  69222-5 0  9997","BSTAR":"0.00000692220000","NORAD_CAT_ID":"51465","REF_FRAME":"TEME","MEAN_ELEMENT_THEORY":"SGP4","FILE":"3910633","DECAY_DATE":null,"RCS_SIZE":"LARGE","RA_OF_ASC_NODE":"208.5483","MEAN_MOTION_DOT":"-0.00000177","MEAN_MOTION":"15.08837495","PERIOD":"95.438","MEAN_MOTION_DDOT":"0.0000000000000","GP_ID":"232044748","SITE":"AFETR","CLASSIFICATION_TYPE":"U","LAUNCH_DATE":"2022-02-03"},{"FILE":"3910633","DECAY_DATE":null,"RCS_SIZE":"LARGE","RA_OF_ASC_NODE":"209.8222","MEAN_MOTION_DOT":"0.00000915","MEAN_MOTION":"15.08846492","PERIOD":"95.437","GP_ID":"232043997","MEAN_MOTION_DDOT":"0.0000000000000","SITE":"AFETR","CLASSIFICATION_TYPE":"U","LAUNCH_DATE":"2022-02-03","CENTER_NAME":"EARTH","MEAN_ANOMALY":"265.2268","REV_AT_EPOCH":"7146","INCLINATION":"53.2162","ECCENTRICITY":"0.00011850","COUNTRY_CODE":"US","ARG_OF_PERICENTER":"94.8860","SEMIMAJOR_AXIS":"6917.861","TLE_LINE2":"2 51467  53.2162 209.8222 0001185  94.8860 265.2268 15.08846492 71465","OBJECT_ID":"2022-010M","OBJECT_NAME":"STARLINK-3178","TIME_SYSTEM":"UTC","PERIAPSIS":"538.906","OBJECT_TYPE":"PAYLOAD","ELEMENT_SET_NO":"999","APOAPSIS":"540.545","EPOCH":"2023-05-17T14:50:13.623936","EPHEMERIS_TYPE":"0","TLE_LINE1":"1 51467U 22010M   23137.61821324  .00000915  00000-0  75532-4 0  9992","BSTAR":"0.00007553200000","REF_FRAME":"TEME","NORAD_CAT_ID":"51467","MEAN_ELEMENT_THEORY":"SGP4"},{"RA_OF_ASC_NODE":"208.5897","DECAY_DATE":null,"RCS_SIZE":"LARGE","FILE":"3910633","MEAN_MOTION":"15.08837075","MEAN_MOTION_DOT":"0.00000216","SITE":"AFETR","CLASSIFICATION_TYPE":"U","PERIOD":"95.438","GP_ID":"232044246","MEAN_MOTION_DDOT":"0.0000000000000","LAUNCH_DATE":"2022-02-03","ECCENTRICITY":"0.00010840","INCLINATION":"53.2166","ARG_OF_PERICENTER":"84.4544","COUNTRY_CODE":"US","REV_AT_EPOCH":"7150","MEAN_ANOMALY":"275.6572","CENTER_NAME":"EARTH","PERIAPSIS":"539.004","TIME_SYSTEM":"UTC","OBJECT_NAME":"STARLINK-3174","OBJECT_TYPE":"PAYLOAD","OBJECT_ID":"2022-010N","SEMIMAJOR_AXIS":"6917.889","TLE_LINE2":"2 51468  53.2166 208.5897 0001084  84.4544 275.6572 15.08837075 71501","APOAPSIS":"540.504","ELEMENT_SET_NO":"999","MEAN_ELEMENT_THEORY":"SGP4","BSTAR":"0.00003163800000","TLE_LINE1":"1 51468U 22010N   23137.89517634  .00000216  00000-0  31638-4 0  9992","EPHEMERIS_TYPE":"0","EPOCH":"2023-05-17T21:29:03.235776","REF_FRAME":"TEME","NORAD_CAT_ID":"51468"},{"REF_FRAME":"TEME","NORAD_CAT_ID":"51469","BSTAR":"0.00014784000000","TLE_LINE1":"1 51469U 22010P   23137.57773143  .00002067  00000-0  14784-3 0  9995","EPOCH":"2023-05-17T13:51:55.995552","EPHEMERIS_TYPE":"0","MEAN_ELEMENT_THEORY":"SGP4","ELEMENT_SET_NO":"999","APOAPSIS":"540.082","OBJECT_ID":"2022-010P","TLE_LINE2":"2 51469  53.2156 210.0007 0000523  75.0116 285.0934 15.08848160 71762","SEMIMAJOR_AXIS":"6917.855","OBJECT_TYPE":"PAYLOAD","TIME_SYSTEM":"UTC","PERIAPSIS":"539.359","OBJECT_NAME":"STARLINK-3182","REV_AT_EPOCH":"7176","MEAN_ANOMALY":"285.0934","CENTER_NAME":"EARTH","COUNTRY_CODE":"US","ARG_OF_PERICENTER":"75.0116","ECCENTRICITY":"0.00005230","INCLINATION":"53.2156","LAUNCH_DATE":"2022-02-03","MEAN_MOTION_DDOT":"0.0000000000000","GP_ID":"232044498","PERIOD":"95.437","SITE":"AFETR","CLASSIFICATION_TYPE":"U","MEAN_MOTION_DOT":"0.00002067","MEAN_MOTION":"15.08848160","FILE":"3910633","RA_OF_ASC_NODE":"210.0007","RCS_SIZE":"LARGE","DECAY_DATE":null},{"LAUNCH_DATE":"2022-02-03","PERIOD":"94.183","GP_ID":"232045248","MEAN_MOTION_DDOT":"0.0000000000000","SITE":"AFETR","CLASSIFICATION_TYPE":"U","MEAN_MOTION_DOT":"0.00042197","MEAN_MOTION":"15.28934725","FILE":"3910633","RA_OF_ASC_NODE":"192.7632","RCS_SIZE":"LARGE","DECAY_DATE":null,"BSTAR":"0.00148490000000","TLE_LINE1":"1 51471U 22010R   23137.86756149  .00042197  00000-0  14849-2 0  9996","EPHEMERIS_TYPE":"0","EPOCH":"2023-05-17T20:49:17.312736","NORAD_CAT_ID":"51471","REF_FRAME":"TEME","MEAN_ELEMENT_THEORY":"SGP4","ELEMENT_SET_NO":"999","APOAPSIS":"482.982","OBJECT_ID":"2022-010R","TLE_LINE2":"2 51471  53.2222 192.7632 0005810 337.4069  22.6676 15.28934725 72039","SEMIMAJOR_AXIS":"6857.133","PERIAPSIS":"475.014","TIME_SYSTEM":"UTC","OBJECT_NAME":"STARLINK-3165","OBJECT_TYPE":"PAYLOAD","REV_AT_EPOCH":"7203","MEAN_ANOMALY":"22.6676","CENTER_NAME":"EARTH","ECCENTRICITY":"0.00058100","INCLINATION":"53.2222","ARG_OF_PERICENTER":"337.4069","COUNTRY_CODE":"US"},{"REF_FRAME":"TEME","NORAD_CAT_ID":"51472","TLE_LINE1":"1 51472U 22010S   23137.89053723  .00000498  00000-0  49382-4 0  9998","BSTAR":"0.00004938200000","EPHEMERIS_TYPE":"0","EPOCH":"2023-05-17T21:22:22.416672","MEAN_ELEMENT_THEORY":"SGP4","ELEMENT_SET_NO":"999","APOAPSIS":"540.583","OBJECT_ID":"2022-010S","SEMIMAJOR_AXIS":"6917.882","TLE_LINE2":"2 51472  53.2162 208.5973 0001208  88.1780 271.9350 15.08839430 71812","OBJECT_TYPE":"PAYLOAD","TIME_SYSTEM":"UTC","PERIAPSIS":"538.911","OBJECT_NAME":"STARLINK-3415","MEAN_ANOMALY":"271.9350","REV_AT_EPOCH":"7181","CENTER_NAME":"EARTH","ARG_OF_PERICENTER":"88.1780","COUNTRY_CODE":"US","ECCENTRICITY":"0.00012080","INCLINATION":"53.2162","LAUNCH_DATE":"2022-02-03","MEAN_MOTION_DDOT":"0.0000000000000","GP_ID":"232043498","PERIOD":"95.438","CLASSIFICATION_TYPE":"U","SITE":"AFETR","MEAN_MOTION_DOT":"0.00000498","MEAN_MOTION":"15.08839430","FILE":"3910633","RA_OF_ASC_NODE":"208.5973","DECAY_DATE":null,"RCS_SIZE":"LARGE"},{"ELEMENT_SET_NO":"999","APOAPSIS":"540.510","TLE_LINE1":"1 51714U 22016A   23137.62833595  .00000471  00000-0  47693-4 0  9991","BSTAR":"0.00004769300000","EPOCH":"2023-05-17T15:04:48.226080","EPHEMERIS_TYPE":"0","NORAD_CAT_ID":"51714","REF_FRAME":"TEME","MEAN_ELEMENT_THEORY":"SGP4","MEAN_ANOMALY":"269.4208","REV_AT_EPOCH":"6837","CENTER_NAME":"EARTH","ECCENTRICITY":"0.00011210","INCLINATION":"53.2162","ARG_OF_PERICENTER":"90.6913","COUNTRY_CODE":"US","OBJECT_ID":"2022-016A","SEMIMAJOR_AXIS":"6917.870","TLE_LINE2":"2 51714  53.2162 259.7749 0001121  90.6913 269.4208 15.08843496 68378","TIME_SYSTEM":"UTC","PERIAPSIS":"538.959","OBJECT_NAME":"STARLINK-3528","OBJECT_TYPE":"PAYLOAD","PERIOD":"95.437","GP_ID":"232044253","MEAN_MOTION_DDOT":"0.0000000000000","SITE":"AFETR","CLASSIFICATION_TYPE":"U","LAUNCH_DATE":"2022-02-21","FILE":"3910633","RA_OF_ASC_NODE":"259.7749","DECAY_DATE":null,"RCS_SIZE":"LARGE","MEAN_MOTION_DOT":"0.00000471","MEAN_MOTION":"15.08843496"},{"APOAPSIS":"540.502","ELEMENT_SET_NO":"999","MEAN_ELEMENT_THEORY":"SGP4","NORAD_CAT_ID":"51715","REF_FRAME":"TEME","EPOCH":"2023-05-17T14:50:17.070432","EPHEMERIS_TYPE":"0","BSTAR":"0.00009834700000","TLE_LINE1":"1 51715U 22016B   23137.61825313  .00001278  00000-0  98347-4 0  9998","COUNTRY_CODE":"US","ARG_OF_PERICENTER":"96.4550","INCLINATION":"53.2179","ECCENTRICITY":"0.00011010","CENTER_NAME":"EARTH","MEAN_ANOMALY":"263.6568","REV_AT_EPOCH":"6950","OBJECT_TYPE":"PAYLOAD","OBJECT_NAME":"STARLINK-3533","PERIAPSIS":"538.979","TIME_SYSTEM":"UTC","SEMIMAJOR_AXIS":"6917.875","TLE_LINE2":"2 51715  53.2179 259.8315 0001101  96.4550 263.6568 15.08841701 69504","OBJECT_ID":"2022-016B","SITE":"AFETR","CLASSIFICATION_TYPE":"U","MEAN_MOTION_DDOT":"0.0000000000000","GP_ID":"232044505","PERIOD":"95.437","LAUNCH_DATE":"2022-02-21","DECAY_DATE":null,"RCS_SIZE":"LARGE","RA_OF_ASC_NODE":"259.8315","FILE":"3910633","MEAN_MOTION":"15.08841701","MEAN_MOTION_DOT":"0.00001278"},{"APOAPSIS":"540.496","ELEMENT_SET_NO":"999","MEAN_ELEMENT_THEORY":"SGP4","REF_FRAME":"TEME","NORAD_CAT_ID":"51716","EPHEMERIS_TYPE":"0","EPOCH":"2023-05-17T13:24:07.279776","TLE_LINE1":"1 51716U 22016C   23137.55841759  .00000731  00000-0  64000-4 0  9996","BSTAR":"0.00006400000000","COUNTRY_CODE":"US","ARG_OF_PERICENTER":"94.6496","INCLINATION":"53.2160","ECCENTRICITY":"0.00010870","CENTER_NAME":"EARTH","MEAN_ANOMALY":"265.4620","REV_AT_EPOCH":"6836","OBJECT_TYPE":"PAYLOAD","OBJECT_NAME":"STARLINK-3543","TIME_SYSTEM":"UTC","PERIAPSIS":"538.992","TLE_LINE2":"2 51716  53.2160 260.0906 0001087  94.6496 265.4620 15.08840301 68364","SEMIMAJOR_AXIS":"6917.879","OBJECT_ID":"2022-016C","CLASSIFICATION_TYPE":"U","SITE":"AFETR","MEAN_MOTION_DDOT":"0.0000000000000","GP_ID":"232045255","PERIOD":"95.438","LAUNCH_DATE":"2022-02-21","DECAY_DATE":null,"RCS_SIZE":"LARGE","RA_OF_ASC_NODE":"260.0906","FILE":"3910633","MEAN_MOTION":"15.08840301","MEAN_MOTION_DOT":"0.00000731"},{"APOAPSIS":"540.585","ELEMENT_SET_NO":"999","MEAN_ELEMENT_THEORY":"SGP4","REF_FRAME":"TEME","NORAD_CAT_ID":"51717","BSTAR":"0.00005756300000","TLE_LINE1":"1 51717U 22016D   23137.62097548  .00000628  00000-0  57563-4 0  9995","EPHEMERIS_TYPE":"0","EPOCH":"2023-05-17T14:54:12.281472","COUNTRY_CODE":"US","ARG_OF_PERICENTER":"105.9579","ECCENTRICITY":"0.00012110","INCLINATION":"53.2172","MEAN_ANOMALY":"254.1547","REV_AT_EPOCH":"6837","CENTER_NAME":"EARTH","OBJECT_TYPE":"PAYLOAD","PERIAPSIS":"538.909","TIME_SYSTEM":"UTC","OBJECT_NAME":"STARLINK-3445","OBJECT_ID":"2022-016D","SEMIMAJOR_AXIS":"6917.882","TLE_LINE2":"2 51717  53.2172 259.8059 0001211 105.9579 254.1547 15.08839533 68379","CLASSIFICATION_TYPE":"U","SITE":"AFETR","MEAN_MOTION_DDOT":"0.0000000000000","GP_ID":"232043505","PERIOD":"95.438","LAUNCH_DATE":"2022-02-21","RA_OF_ASC_NODE":"259.8059","DECAY_DATE":null,"RCS_SIZE":"LARGE","FILE":"3910633","MEAN_MOTION":"15.08839533","MEAN_MOTION_DOT":"0.00000628"}];
